ONEWEB-0012             
1 44057U 19010A   26165.21329899 -.00000012  00000+0 -65133-4 0  9990
2 44057  87.9097 229.3761 0002035  85.9631 274.1732 13.16594605351177
ONEWEB-0010             
1 44058U 19010B   26165.16263234  .00000210  00000+0  51551-3 0  9991
2 44058  87.9099 229.3815 0001823 106.9339 253.1992 13.16595199351212
ONEWEB-0008             
1 44059U 19010C   26165.18796345  .00000088  00000+0  19710-3 0  9992
2 44059  87.9099 229.3721 0002324  99.1400 260.9994 13.16596044351339
ONEWEB-0007             
1 44060U 19010D   26164.99252272 -.00000058  00000+0 -18838-3 0  9997
2 44060  87.8999 259.8577 0001683  97.7820 262.3501 13.15548451350958
ONEWEB-0006             
1 44061U 19010E   26164.76830176 -.00000081  00000+0 -24833-3 0  9996
2 44061  87.9011 259.8663 0001852 103.4895 256.6442 13.15548428350972
ONEWEB-0011             
1 44062U 19010F   26165.19295205  .00000033  00000+0  54819-4 0  9996
2 44062  87.9014 259.7911 0002052 105.6250 254.5107 13.15547236351021
ONEWEB-0013             
1 45131U 20008A   26165.19001956 -.00000386  00000+0 -11581-2 0  9991
2 45131  87.8527  53.4301 0002378  56.7196 303.4158 13.09461147305674
ONEWEB-0017             
1 45132U 20008B   26165.17450249  .00000665  00000+0  18696-2 0  9995
2 45132  87.8834  36.8689 0001670  87.3495 272.7823 13.10371834307557
ONEWEB-0020             
1 45133U 20008C   26162.09052118 -.00025249  00000+0 -72765-1 0  9990
2 45133  87.8849  37.4818 0002539  39.3679 320.7632 13.10181111307549
ONEWEB-0021             
1 45134U 20008D   26165.15955718  .00000469  00000+0  13067-2 0  9995
2 45134  87.8835  36.8864 0001750  79.3890 280.7435 13.10375888308253
ONEWEB-0023             
1 45136U 20008F   26165.17035542  .00000748  00000+0  21077-2 0  9993
2 45136  87.8839  36.8659 0001927  79.2494 280.8850 13.10373016307685
ONEWEB-0024             
1 45137U 20008G   26165.14308444 -.00000380  00000+0 -11260-2 0  9992
2 45137  87.8848  36.8642 0001777  83.1937 276.9393 13.10375008307846
ONEWEB-0025             
1 45138U 20008H   26165.14280880 -.00000432  00000+0 -12735-2 0  9992
2 45138  87.8851  36.8539 0002216  91.9379 268.2002 13.10374870308176
ONEWEB-0026             
1 45139U 20008J   26165.10668008 -.00000282  00000+0 -83219-3 0  9990
2 45139  87.8889  21.6817 0001801  89.8675 270.2660 13.11418279310701
ONEWEB-0028             
1 45140U 20008K   26165.15838323 -.00000912  00000+0 -26101-2 0  9992
2 45140  87.8886  21.6796 0002011  68.5177 291.6165 13.11417248308227
ONEWEB-0032             
1 45141U 20008L   26165.17630118  .00000650  00000+0  18264-2 0  9995
2 45141  87.8835  36.8700 0002077  70.6705 289.4647 13.10371177307901
ONEWEB-0033             
1 45142U 20008M   26165.15125190  .00000000  00000+0 -36836-4 0  9990
2 45142  87.8835  36.8826 0001572  97.4140 262.7166 13.10375969307813
ONEWEB-0035             
1 45143U 20008N   26165.17132816  .00000740  00000+0  20833-2 0  9994
2 45143  87.8832  36.8712 0001749  84.4479 275.6847 13.10373828307543
ONEWEB-0036             
1 45144U 20008P   26165.14553150 -.00000297  00000+0 -89277-3 0  9997
2 45144  87.8853  36.8878 0001974  77.5365 282.5983 13.09984861307964
ONEWEB-0038             
1 45145U 20008Q   26165.11700355  .00000374  00000+0  10188-2 0  9994
2 45145  87.8904  21.6881 0000616  15.3064 344.8082 13.11418776309926
ONEWEB-0039             
1 45146U 20008R   26165.15458054  .00000191  00000+0  51198-3 0  9999
2 45146  87.8837  36.8722 0001993  67.4268 292.7070 13.10375826307762
ONEWEB-0040             
1 45147U 20008S   26165.14792948 -.00000145  00000+0 -45112-3 0  9992
2 45147  87.8837  36.8845 0001703  79.2727 280.8592 13.10375995307460
ONEWEB-0043             
1 45149U 20008U   26165.14959300 -.00000067  00000+0 -22846-3 0  9993
2 45149  87.8842  36.8715 0002084  67.4421 292.6927 13.10376215307781
ONEWEB-0044             
1 45150U 20008V   26165.17782286  .00000649  00000+0  18233-2 0  9993
2 45150  87.8842  36.8659 0001793  75.8078 284.3248 13.10370699308085
ONEWEB-0045             
1 45151U 20008W   26165.11177661  .00000163  00000+0  42371-3 0  9995
2 45151  87.8899  21.6716 0001785  80.6279 279.5050 13.11419384310000
ONEWEB-0047             
1 45152U 20008X   26165.17104847  .00000565  00000+0  15835-2 0  9998
2 45152  87.8841  36.8670 0001616  83.8269 276.3042 13.10373078307800
ONEWEB-0048             
1 45153U 20008Y   26165.08984531  .00000602  00000+0  16894-2 0  9993
2 45153  87.8836  36.9043 0001751  80.6771 279.4554 13.10374228307409
ONEWEB-0049             
1 45154U 20008Z   26165.09303389  .00000758  00000+0  21360-2 0  9997
2 45154  87.8835  36.8935 0002234  82.3638 277.7743 13.10373141307624
ONEWEB-0051             
1 45155U 20008AA  26165.11008922  .00000088  00000+0  21174-3 0  9996
2 45155  87.8891  21.6799 0001830  84.0852 276.0484 13.11419336310687
ONEWEB-0052             
1 45156U 20008AB  26165.18957307  .00000086  00000+0  21051-3 0  9996
2 45156  87.8835  36.8598 0002247  81.7884 278.3498 13.10369590307549
ONEWEB-0053             
1 45157U 20008AC  26165.14627100 -.00000279  00000+0 -83524-3 0  9997
2 45157  87.8837  36.8903 0002178  72.5333 287.6032 13.10375498307510
